KUIPER-00533            
1 69605U 26140P   26178.16670139 -.00009017  00000+0 -22747-3 0  9999
2 69605  51.8796 350.4629 0007662 251.7781 291.3177 15.37942785  2187
KUIPER-00534            
1 69606U 26140Q   26178.16670139 -.00006382  00000+0 -14628-3 0  9991
2 69606  51.8819 350.3177 0014502 196.5400  58.8163 15.40104598  2464
KUIPER-00537            
1 69607U 26140R   26178.16670139 -.00006081  00000+0 -16102-3 0  9997
2 69607  51.8821 350.6148 0008142 350.8848 120.1522 15.35777484  2447
KUIPER-00538            
1 69608U 26140S   26178.16670139 -.00007136  00000+0 -18180-3 0  9998
2 69608  51.8821 350.5109 0005522 268.1375 252.9692 15.37291911  2685
KUIPER-00540            
1 69609U 26140T   26178.16670139 -.00005818  00000+0 -14905-3 0  9995
2 69609  51.8827 350.5585 0005557 316.8219 181.8620 15.36712592  2173
KUIPER-00541            
1 69610U 26140U   26178.16670139 -.00008949  00000+0 -22573-3 0  9995
2 69610  51.8830 350.4758 0007088 247.9736 291.1024 15.37938975  2684
KUIPER-00542            
1 69611U 26140V   26178.16670139 -.00009326  00000+0 -23449-3 0  9999
2 69611  51.8796 350.4541 0007334 229.7263 317.7519 15.38090687  1787
KUIPER-00543            
1 69612U 26140W   26178.16670139 -.00007567  00000+0 -19903-3 0  9995
2 69612  51.8796 350.5736 0006823 334.3931 153.2187 15.36409660  2027
KUIPER-00544            
1 69613U 26140X   26178.16670139 -.00007606  00000+0 -19125-3 0  9996
2 69613  51.8798 350.4809 0006559 247.9420 286.3359 15.37786132  2288
KUIPER-00546            
1 69614U 26140Y   26178.16670139 -.00011088  00000+0 -27632-3 0  9998
2 69614  51.8790 350.3262 0015195 195.6867  55.2073 15.38470017  2710
KUIPER-00547            
1 69615U 26140Z   26178.16670139 -.00009134  00000+0 -22156-3 0  9994
2 69615  51.8827 350.3905 0011470 215.7178   4.7004 15.39091516  1308
KUIPER-00549            
1 69616U 26140AA  26178.16670139 -.00006407  00000+0 -16399-3 0  9997
2 69616  51.8802 350.5386 0006308 309.3695 196.3186 15.36935374  2626
KUIPER-00550            
1 69617U 26140AB  26178.16670139 -.00006447  00000+0 -17417-3 0  9994
2 69617  51.8806 350.6273 0006218 354.9018 107.3007 15.35308247  2011
KUIPER-00551            
1 69618U 26140AC  26178.16670139 -.00007525  00000+0 -17753-3 0  9996
2 69618  51.8792 350.3514 0013239 207.4564  30.8330 15.39583699  1300
KUIPER-00554            
1 69619U 26140AD  26178.16670139 -.00009540  00000+0 -23078-3 0  9993
2 69619  51.8793 350.3798 0011789 216.1994   8.0301 15.39228757  2439
KUIPER-00555            
1 69620U 26140AE  26178.16670139 -.00009536  00000+0 -22886-3 0  9996
2 69620  51.8825 350.3668 0012416 209.0893  22.7107 15.39453372  2238
KUIPER-00556            
1 69621U 26140AF  26178.16670139 -.00011603  00000+0 -29576-3 0  9998
2 69621  51.8812 350.3707 0012528 198.3199  30.9791 15.37882970  2432
KUIPER-00557            
1 69622U 26140AG  26178.16670139 -.00005289  00000+0 -12527-3 0  9990
2 69622  51.8817 350.4092 0010391 223.3259 347.5284 15.38777821  1597
KUIPER-00560            
1 69623U 26140AH  26178.16670139 -.00009378  00000+0 -23303-3 0  9998
2 69623  51.8795 350.4346 0008779 232.3545 324.7219 15.38438183  2344
KUIPER-00561            
1 69624U 26140AJ  26178.16670139 -.00004589  00000+0 -10942-3 0  9993
2 69624  51.8830 350.4483 0007796 232.9126 319.5151 15.38240117  2554
KUIPER-00564            
1 69625U 26140AK  26178.16670139 -.00009062  00000+0 -22379-3 0  9992
2 69625  51.8818 350.4261 0009504 222.6679 339.8905 15.38569876  2012
KUIPER-00567            
1 69626U 26140AL  26178.16670139 -.00010768  00000+0 -27167-3 0  9998
2 69626  51.8781 350.3569 0013220 200.4446  35.0750 15.38095270  2743
KUIPER-00573            
1 69627U 26140AM  26178.16670139 -.00010987  00000+0 -28594-3 0  9997
2 69627  51.8793 350.4155 0009919 213.9932 352.7069 15.37224699  2681
CENTISPACE-1 GROUP 05 O*
1 69636U 26138J   26177.88411007 -.00000321  00000+0 -84946-4 0  9994
2 69636  55.1415 245.3325 0008346 300.6659  59.3492 14.15850570  1365
