OBJECT_NAME,OBJECT_ID,EPOCH,MEAN_MOTION,ECCENTRICITY,INCLINATION,RA_OF_ASC_NODE,ARG_OF_PERICENTER,MEAN_ANOMALY,EPHEMERIS_TYPE,CLASSIFICATION_TYPE,NORAD_CAT_ID,ELEMENT_SET_NO,REV_AT_EPOCH,BSTAR,MEAN_MOTION_DOT,MEAN_MOTION_DDOT
KUIPER-00533,2026-140P,2026-06-27T04:00:03.000096,15.37942785,.0007662,51.8796,350.4629,251.7781,291.3177,0,U,69605,999,218,-.22747E-3,-.9017E-4,0
KUIPER-00534,2026-140Q,2026-06-27T04:00:03.000096,15.40104598,.0014502,51.8819,350.3177,196.5400,58.8163,0,U,69606,999,246,-.14628E-3,-.6382E-4,0
KUIPER-00537,2026-140R,2026-06-27T04:00:03.000096,15.35777484,.0008142,51.8821,350.6148,350.8848,120.1522,0,U,69607,999,244,-.16102E-3,-.6081E-4,0
KUIPER-00538,2026-140S,2026-06-27T04:00:03.000096,15.37291911,.0005522,51.8821,350.5109,268.1375,252.9692,0,U,69608,999,268,-.1818E-3,-.7136E-4,0
KUIPER-00540,2026-140T,2026-06-27T04:00:03.000096,15.36712592,.0005557,51.8827,350.5585,316.8219,181.8620,0,U,69609,999,217,-.14905E-3,-.5818E-4,0
KUIPER-00541,2026-140U,2026-06-27T04:00:03.000096,15.37938975,.0007088,51.8830,350.4758,247.9736,291.1024,0,U,69610,999,268,-.22573E-3,-.8949E-4,0
KUIPER-00542,2026-140V,2026-06-27T04:00:03.000096,15.38090687,.0007334,51.8796,350.4541,229.7263,317.7519,0,U,69611,999,178,-.23449E-3,-.9326E-4,0
KUIPER-00543,2026-140W,2026-06-27T04:00:03.000096,15.36409660,.0006823,51.8796,350.5736,334.3931,153.2187,0,U,69612,999,202,-.19903E-3,-.7567E-4,0
KUIPER-00544,2026-140X,2026-06-27T04:00:03.000096,15.37786132,.0006559,51.8798,350.4809,247.9420,286.3359,0,U,69613,999,228,-.19125E-3,-.7606E-4,0
KUIPER-00546,2026-140Y,2026-06-27T04:00:03.000096,15.38470017,.0015195,51.8790,350.3262,195.6867,55.2073,0,U,69614,999,271,-.27632E-3,-.11088E-3,0
KUIPER-00547,2026-140Z,2026-06-27T04:00:03.000096,15.39091516,.001147,51.8827,350.3905,215.7178,4.7004,0,U,69615,999,130,-.22156E-3,-.9134E-4,0
KUIPER-00549,2026-140AA,2026-06-27T04:00:03.000096,15.36935374,.0006308,51.8802,350.5386,309.3695,196.3186,0,U,69616,999,262,-.16399E-3,-.6407E-4,0
KUIPER-00550,2026-140AB,2026-06-27T04:00:03.000096,15.35308247,.0006218,51.8806,350.6273,354.9018,107.3007,0,U,69617,999,201,-.17417E-3,-.6447E-4,0
KUIPER-00551,2026-140AC,2026-06-27T04:00:03.000096,15.39583699,.0013239,51.8792,350.3514,207.4564,30.8330,0,U,69618,999,130,-.17753E-3,-.7525E-4,0
KUIPER-00554,2026-140AD,2026-06-27T04:00:03.000096,15.39228757,.0011789,51.8793,350.3798,216.1994,8.0301,0,U,69619,999,243,-.23078E-3,-.954E-4,0
KUIPER-00555,2026-140AE,2026-06-27T04:00:03.000096,15.39453372,.0012416,51.8825,350.3668,209.0893,22.7107,0,U,69620,999,223,-.22886E-3,-.9536E-4,0
KUIPER-00556,2026-140AF,2026-06-27T04:00:03.000096,15.37882970,.0012528,51.8812,350.3707,198.3199,30.9791,0,U,69621,999,243,-.29576E-3,-.11603E-3,0
KUIPER-00557,2026-140AG,2026-06-27T04:00:03.000096,15.38777821,.0010391,51.8817,350.4092,223.3259,347.5284,0,U,69622,999,159,-.12527E-3,-.5289E-4,0
KUIPER-00560,2026-140AH,2026-06-27T04:00:03.000096,15.38438183,.0008779,51.8795,350.4346,232.3545,324.7219,0,U,69623,999,234,-.23303E-3,-.9378E-4,0
KUIPER-00561,2026-140AJ,2026-06-27T04:00:03.000096,15.38240117,.0007796,51.8830,350.4483,232.9126,319.5151,0,U,69624,999,255,-.10942E-3,-.4589E-4,0
KUIPER-00564,2026-140AK,2026-06-27T04:00:03.000096,15.38569876,.0009504,51.8818,350.4261,222.6679,339.8905,0,U,69625,999,201,-.22379E-3,-.9062E-4,0
KUIPER-00567,2026-140AL,2026-06-27T04:00:03.000096,15.38095270,.001322,51.8781,350.3569,200.4446,35.0750,0,U,69626,999,274,-.27167E-3,-.10768E-3,0
KUIPER-00573,2026-140AM,2026-06-27T04:00:03.000096,15.37224699,.0009919,51.8793,350.4155,213.9932,352.7069,0,U,69627,999,268,-.28594E-3,-.10987E-3,0
CENTISPACE-1 GROUP 05 OBJECT J,2026-138J,2026-06-26T21:13:07.110048,14.15850570,.0008346,55.1415,245.3325,300.6659,59.3492,0,U,69636,999,136,-.84946E-4,-.321E-5,0
